ONEWEB-0558             
1 56059U 23043P   24193.80068281  .00000056  00000+0  10480-3 0  9995
2 56059  87.9278  24.4019 0001712  73.5062 286.6260 13.21823847 65967
ONEWEB-0559             
1 56060U 23043Q   24193.78966572  .00000115  00000+0  24744-3 0  9998
2 56060  87.9277  24.4016 0002218  76.2892 283.8489 13.21825915 65979
ONEWEB-0566             
1 56061U 23043R   24193.55625569  .00000084  00000+0  17234-3 0  9993
2 56061  87.9275  24.4484 0001780  65.4205 294.7114 13.21827711 65015
ONEWEB-0568             
1 56062U 23043S   24193.53116405 -.00000013  00000+0 -67087-4 0  9992
2 56062  87.9103   9.2466 0001739 102.6558 257.4768 13.16593125 66123
ONEWEB-0574             
1 56063U 23043T   24193.54994674  .00000058  00000+0  11009-3 0  9995
2 56063  87.9273  24.4439 0001689  87.8945 272.2382 13.21823950 65055
ONEWEB-0575             
1 56064U 23043U   24193.52482514 -.00000048  00000+0 -15832-3 0  9998
2 56064  87.9105   9.2572 0002297 101.7740 258.3648 13.16593303 66112
ONEWEB-0576             
1 56065U 23043V   24193.50583057  .00000014  00000+0  30071-5 0  9996
2 56065  87.9102   9.2579 0001899 104.0094 256.1248 13.16593410 66102
ONEWEB-0577             
1 56066U 23043W   24193.51215852  .00000001  00000+0 -30907-4 0  9997
2 56066  87.9103   9.2558 0002532 102.0772 258.0643 13.16593086 66139
